[
    {
        "Altitude(m)": 607911.0059424656,
        "Argument of Periapsis(deg)": 0.0,
        "Eccentricity": 0.0,
        "Inclination(deg)": 60.0,
        "Latitude(deg)": -14.292926775081334,
        "Longitude(deg)": -176.55737464361977,
        "Mean Anomaly(deg)": 196.36359999999996,
        "RAAN(deg)": 95.0,
        "Satellite Name": "Test1 430",
        "Satellite Number": 430,
        "Semi-Major Axis(m)": 6980739.136638005,
        "Time(s)": 0
    },
    {
        "Altitude(m)": 608060.239512631,
        "Argument of Periapsis(deg)": 0.00010418945913296404,
        "Eccentricity": 0.0,
        "Inclination(deg)": 60.0,
        "Latitude(deg)": -14.826588621455539,
        "Longitude(deg)": -176.26876609121837,
        "Mean Anomaly(deg)": 196.9837061454618,
        "RAAN(deg)": 94.99957995086027,
        "Satellite Name": "Test1 430",
        "Satellite Number": 430,
        "Semi-Major Axis(m)": 6980739.136638005,
        "Time(s)": 10
    }
]